[{"URL": "http://www.just-eat.co.uk/restaurants-cn-chinese-cardiff/menu", "address": "228 City Road", "address line 2": "Cardiff", "name": ".CN Chinese", "outcode": "CF24", "postcode": "3JH", "rating": 5, "type_of_food": "Chinese"}, {"URL": "http://www.just-eat.co.uk/restaurants-atthai-ss9/menu", "address": "376 Rayleigh Road", "address line 2": "Essex", "name": "@ Thai", "outcode": "SS9", "postcode": "5PT", "rating": 5.5, "type_of_food": "Thai"}, {"URL": "http://www.just-eat.co.uk/restaurants-atthairestaurant/menu", "address": "30 Greyhound Road Hammersmith", "address line 2": "London", "name": "@ Thai Restaurant", "outcode": "W6", "postcode": "8NX", "rating": 4.5, "type_of_food": "Thai"}, {"URL": "http://www.just-eat.co.uk/restaurants-atthairestaurant/menu", "address": "30 Greyhound Road Hammersmith", "address line 2": "London", "name": "@ Thai Restaurant", "outcode": "W6", "postcode": "8NX", "rating": 4.5, "type_of_food": "Thai"}, {"URL": "http://www.just-eat.co.uk/restaurants-indiancom-ch4/menu", "address": "9 Broughton Hall Road", "address line 2": "Broughton", "name": "@Indian.com", "outcode": "CH4", "postcode": "0QR", "rating": 6, "type_of_food": "Curry"}, {"URL": "http://www.just-eat.co.uk/restaurants-007takeaway-s65/menu", "address": "6 Drummond Street", "address line 2": "Rotherham", "name": "007 Takeaway", "outcode": "S65", "postcode": "1HY", "rating": 6, "type_of_food": "Pizza"}, {"URL": "http://www.just-eat.co.uk/restaurants-042-restaurant-e11/menu", "address": "885 High Road Leytonstone", "address line 2": "London", "name": "042 Restaurant & Bar", "outcode": "E11", "postcode": "1HR", "rating": 3, "type_of_food": "African"}, {"URL": "http://www.just-eat.co.uk/restaurants-042-restaurant-e11/menu", "address": "885 High Road Leytonstone", "address line 2": "London", "name": "042 Restaurant & Bar", "outcode": "E11", "postcode": "1HR", "rating": 3, "type_of_food": "African"}, {"URL": "http://www.just-eat.co.uk/restaurants-042-restaurant-e11/menu", "address": "885 High Road Leytonstone", "address line 2": "London", "name": "042 Restaurant & Bar", "outcode": "E11", "postcode": "1HR", "rating": 3, "type_of_food": "African"}, {"URL": "http://www.just-eat.co.uk/restaurants-1-2-3-chinese-rowlands-gill/menu", "address": "Unit 4 Spencer House", "address line 2": "Swalwell", "name": "1 2 3 Chinese", "outcode": "NE16", "postcode": "3DS", "rating": 4.5, "type_of_food": "Chinese"}, {"URL": "http://www.just-eat.co.uk/restaurants-1-2-3-chinese-rowlands-gill/menu", "address": "Unit 4 Spencer House", "address line 2": "Swalwell", "name": "1 2 3 Chinese", "outcode": "NE16", "postcode": "3DS", "rating": 4.5, "type_of_food": "Chinese"}, {"URL": "http://www.just-eat.co.uk/restaurants-100-degrees-chinese-restaurant-pontypridd/menu", "address": "67 Park Street", "address line 2": "Treforest", "name": "100 Degrees Chinese Restaurant", "outcode": "CF37", "postcode": "1SN", "rating": 5, "type_of_food": "Chinese"}, {"URL": "http://www.just-eat.co.uk/restaurants-100menu-wn1/menu", "address": "50 Wallgate", "address line 2": "Wigan", "name": "100 Menu", "outcode": "WN1", "postcode": "1JU", "rating": 5, "type_of_food": "Chinese"}, {"URL": "http://www.just-eat.co.uk/restaurants-104-turkish-BBQ/menu", "address": "104 Tanners Lane", "address line 2": "Essex", "name": "104 Turkish BBQ", "outcode": "IG6", "postcode": "1QE", "rating": 5, "type_of_food": "Turkish"}, {"URL": "http://www.just-eat.co.uk/restaurants-109restaurant-w2/menu", "address": "109 Westbourne Park Road", "address line 2": "London", "name": "109 Ristorante", "outcode": "W2", "postcode": "5QL", "rating": 5, "type_of_food": "Pizza"}, {"URL": "http://www.just-eat.co.uk/restaurants-113-fish-bar-wallasey/menu", "address": "113 Poulton Road", "address line 2": "Merseyside", "name": "113 Fish Bar", "outcode": "CH44", "postcode": "9DE", "rating": 5.5, "type_of_food": "Chinese"}, {"URL": "http://www.just-eat.co.uk/restaurants-133-takeaway-irvine/menu", "address": "133 Fullarton Street", "address line 2": "Irvine", "name": "133 Takeaway", "outcode": "KA12", "postcode": "8DG", "rating": "Not yet rated", "type_of_food": "Breakfast"}, {"URL": "http://www.just-eat.co.uk/restaurants-1498thespiceaffair-pe11/menu", "address": "Red Lion Hotel", "address line 2": "Spalding", "name": "1498 The Spice Affair", "outcode": "PE11", "postcode": "1SU", "rating": 5.5, "type_of_food": "Curry"}, {"URL": "http://www.just-eat.co.uk/restaurants-168chinese-ls18/menu", "address": "17 Alexandra Road", "address line 2": "West Yorkshire", "name": "168 Chinese & Cantonese Takeaway", "outcode": "LS18", "postcode": "4HE", "rating": 5.5, "type_of_food": "Chinese"}, {"URL": "http://www.just-eat.co.uk/restaurants-1awok-pa7/menu", "address": "Unit 2 30 Greenock Road", "address line 2": "Bishopton", "name": "1A Wok", "outcode": "PA7", "postcode": "5JN", "rating": 5, "type_of_food": "Chinese"}, {"URL": "http://www.just-eat.co.uk/restaurants-1pizza1com-ls26/menu", "address": "160 Leeds Road", "address line 2": "Leeds", "name": "1pizza1", "outcode": "LS26", "postcode": "0JH", "rating": 4, "type_of_food": "Pizza"}, {"URL": "http://www.just-eat.co.uk/restaurants-1st-choice-pizza-ws11/menu", "address": "1 Walsall Road", "address line 2": "Cannock", "name": "1st Choice Pizza", "outcode": "WS11", "postcode": "0HG", "rating": 4, "type_of_food": "Pizza"}, {"URL": "http://www.just-eat.co.uk/restaurants-1stclasspizza-bs7/menu", "address": "388 Filton Avenue", "address line 2": "Bristol", "name": "1st Class Pizza", "outcode": "BS7", "postcode": "0BE", "rating": 4.5, "type_of_food": "Pizza"}, {"URL": "http://www.just-eat.co.uk/restaurants-1stclasspizza-bs7/menu", "address": "388 Filton Avenue", "address line 2": "Bristol", "name": "1st Class Pizza", "outcode": "BS7", "postcode": "0BE", "rating": 4.5, "type_of_food": "Pizza"}, {"URL": "http://www.just-eat.co.uk/restaurants-1stclasspizza-ng18/menu", "address": "70 Carter Lane", "address line 2": "Mansfield", "name": "1st Class Pizza", "outcode": "NG18", "postcode": "3DH", "rating": 4.5, "type_of_food": "Pizza"}, {"URL": "http://www.just-eat.co.uk/restaurants-1st-class-pizza-and-kebab-house-nottingham/menu", "address": "470 Vernon Road", "address line 2": "Old Basford", "name": "1st Class Pizza & Kebab House", "outcode": "NG6", "postcode": "0AT", "rating": 4, "type_of_food": "Pizza"}, {"URL": "http://www.just-eat.co.uk/restaurants-241-pizza-ol1/menu", "address": "137 Yorkshire Street", "address line 2": "Oldham", "name": "2 4 1 Pizza", "outcode": "OL1", "postcode": "3TH", "rating": 5.5, "type_of_food": "Pizza"}, {"URL": "http://www.just-eat.co.uk/restaurants-2for1pizza-le10/menu", "address": "19 Regent Street", "address line 2": "Hinckley", "name": "2 for 1 Pizza Place", "outcode": "LE10", "postcode": "0AZ", "rating": 5.5, "type_of_food": "Pizza"}, {"URL": "http://www.just-eat.co.uk/restaurants-2-spice/menu", "address": "2 Station Approach", "address line 2": "Upminster", "name": "2 Spice", "outcode": "RM14", "postcode": "2TH", "rating": 5.5, "type_of_food": "Curry"}, {"URL": "http://www.just-eat.co.uk/restaurants-1treatu-b26/menu", "address": "1776 Coventry Road", "address line 2": "Birmingham", "name": "2 Treat U", "outcode": "B26", "postcode": "1PB", "rating": 5.5, "type_of_food": "Pizza"}, {"URL": "http://www.just-eat.co.uk/restaurants-23rdstreetpizza-m14/menu", "address": "317 Wilmslow Road", "address line 2": "Fallowfield", "name": "23rd Street Pizza", "outcode": "M14", "postcode": "6NW", "rating": 5, "type_of_food": "American"}, {"URL": "http://www.just-eat.co.uk/restaurants-23rdstreetpizza-m14/menu", "address": "317 Wilmslow Road", "address line 2": "Fallowfield", "name": "23rd Street Pizza", "outcode": "M14", "postcode": "6NW", "rating": 5, "type_of_food": "American"}, {"URL": "http://www.just-eat.co.uk/restaurants-241-pizza/menu", "address": "107 King Richards Road", "address line 2": "Leicester", "name": "241 Pizza", "outcode": "LE3", "postcode": "5QG", "rating": 5, "type_of_food": "Pizza"}, {"URL": "http://www.just-eat.co.uk/restaurants-241pizza-m9/menu", "address": "8 Victoria Avenue", "address line 2": "Manchester", "name": "241 Pizza", "outcode": "M9", "postcode": "6QL", "rating": 5.5, "type_of_food": "Pizza"}, {"URL": "http://www.just-eat.co.uk/restaurants-241pizza-ne38/menu", "address": "22 Eddison Road", "address line 2": "Newcastle", "name": "2-4-1 Pizza", "outcode": "NE38", "postcode": "8JH", "rating": 4.5, "type_of_food": "Pizza"}, {"URL": "http://www.just-eat.co.uk/restaurants-241piza-m34/menu", "address": "88 Manchester Road", "address line 2": "Manchester", "name": "2-4-1 Pizza", "outcode": "M34", "postcode": "3PR", "rating": 5, "type_of_food": "Pizza"}, {"URL": "http://www.just-eat.co.uk/restaurants-241piza-m34/menu", "address": "88 Manchester Road", "address line 2": "Manchester", "name": "2-4-1 Pizza", "outcode": "M34", "postcode": "3PR", "rating": 5, "type_of_food": "Pizza"}, {"URL": "http://www.just-eat.co.uk/restaurants-280degreesafrican-nw6/menu", "address": "280 Kilburn High Road", "address line 2": "London", "name": "280 Degrees African & Nigerian Restaurant", "outcode": "NW6", "postcode": "2BY", "rating": 2.5, "type_of_food": "African"}, {"URL": "http://www.just-eat.co.uk/restaurants-280degreesafrican-nw6/menu", "address": "280 Kilburn High Road", "address line 2": "London", "name": "280 Degrees African & Nigerian Restaurant", "outcode": "NW6", "postcode": "2BY", "rating": 2.5, "type_of_food": "African"}, {"URL": "http://www.just-eat.co.uk/restaurants-3chefsfishbar-de21/menu", "address": "47 Roosevelt Avenue", "address line 2": "Derby", "name": "3 Chef Fish Bar", "outcode": "DE21", "postcode": "6JR", "rating": 4.5, "type_of_food": "Fish & Chips"}, {"URL": "http://www.just-eat.co.uk/restaurants-3chefs-de23/menu", "address": "558 Burton Road", "address line 2": "Littleover", "name": "3 Chefs", "outcode": "DE23", "postcode": "6FP", "rating": 4.5, "type_of_food": "American"}, {"URL": "http://www.just-eat.co.uk/restaurants-3in1dunoon-pa23/menu", "address": "45 Argyll Street DUNOON", "address line 2": "Argyll", "name": "3 In 1 Dunoon", "outcode": "PA23", "postcode": "7HG", "rating": 5, "type_of_food": "Curry"}, {"URL": "http://www.just-eat.co.uk/restaurants-3in1-indian-cuisine-g78/menu", "address": "58 Aurs Drive", "address line 2": "Barrhead", "name": "3 in 1 Indian & Chipshop Barrhead", "outcode": "G78", "postcode": "2LW", "rating": 4.5, "type_of_food": "English"}, {"URL": "http://www.just-eat.co.uk/restaurants-3in1xtra/menu", "address": "67-69 Elmbank Street", "address line 2": "Glasgow", "name": "3 In 1 Xtra", "outcode": "G2", "postcode": "4PQ", "rating": 4, "type_of_food": "Curry"}, {"URL": "http://www.just-eat.co.uk/restaurants-3in1xtra/menu", "address": "67-69 Elmbank Street", "address line 2": "Glasgow", "name": "3 In 1 Xtra", "outcode": "G2", "postcode": "4PQ", "rating": 4, "type_of_food": "Curry"}, {"URL": "http://www.just-eat.co.uk/restaurants-3in1xtra/menu", "address": "67-69 Elmbank Street", "address line 2": "Glasgow", "name": "3 In 1 Xtra", "outcode": "G2", "postcode": "4PQ", "rating": 4, "type_of_food": "Curry"}, {"URL": "http://www.just-eat.co.uk/restaurants-321/menu", "address": "148 St.Georges Road", "address line 2": "Cheltenham", "name": "321 Pizzas, Kebabs & Burgers", "outcode": "GL50", "postcode": "3EL", "rating": 5.5, "type_of_food": "Pizza"}, {"URL": "http://www.just-eat.co.uk/restaurants-328chineseonline-cf81/menu", "address": "2-4 Commercial Street", "address line 2": "Aberbargoed", "name": "328 Chinese Online", "outcode": "CF81", "postcode": "9BW", "rating": 5, "type_of_food": "Chinese"}, {"URL": "http://www.just-eat.co.uk/restaurants-333-Chinese-FY4/menu", "address": "276 Waterloo Road", "address line 2": "Blackpool", "name": "333 Chinese Takeaway", "outcode": "FY4", "postcode": "3AF", "rating": 5, "type_of_food": "Chinese"}, {"URL": "http://www.just-eat.co.uk/restaurants-333Chinese-G13/menu", "address": "1550 Great Western Road", "address line 2": "Glasgow", "name": "333 Chinese Takeaway", "outcode": "G13", "postcode": "1HJ", "rating": 5, "type_of_food": "Chinese"}, {"URL": "http://www.just-eat.co.uk/restaurants-333Chinese-M11/menu", "address": "1276 Ashton Old Road", "address line 2": "Manchester", "name": "333 Chinese Takeaway1", "outcode": "M11", "postcode": "1JJ", "rating": 4.5, "type_of_food": "Chinese"}, {"URL": "http://www.just-eat.co.uk/restaurants-350wok-ws10/menu", "address": "136A Crankhall Lane", "address line 2": "Wednesbury", "name": "350 Wok", "outcode": "WS10", "postcode": "0ED", "rating": 5.5, "type_of_food": "Chinese"}, {"URL": "http://www.just-eat.co.uk/restaurants-350wok-ws10/menu", "address": "136A Crankhall Lane", "address line 2": "Wednesbury", "name": "350 Wok", "outcode": "WS10", "postcode": "0ED", "rating": 5.5, "type_of_food": "Chinese"}, {"URL": "http://www.just-eat.co.uk/restaurants-350wok-ws10/menu", "address": "136A Crankhall Lane", "address line 2": "Wednesbury", "name": "350 Wok", "outcode": "WS10", "postcode": "0ED", "rating": 5.5, "type_of_food": "Chinese"}, {"URL": "http://www.just-eat.co.uk/restaurants-4in1-Express-CH41/menu", "address": "122 Duke Street", "address line 2": "Birkenhead", "name": "4 in 1 Express", "outcode": "CH41", "postcode": "8BT", "rating": 5, "type_of_food": "Pizza"}, {"URL": "http://www.just-eat.co.uk/restaurants-4inlove-pe30/menu", "address": "10-12 Railway Road", "address line 2": "Norfolk", "name": "4 in Love", "outcode": "PE30", "postcode": "1NE", "rating": 5.5, "type_of_food": "Chinese"}, {"URL": "http://www.just-eat.co.uk/restaurants-4500-miles-from-delhi-bristol/menu", "address": "8 Colston Avenue", "address line 2": "Bristol", "name": "4500 Miles From Delhi", "outcode": "BS1", "postcode": "4ST", "rating": 4, "type_of_food": "Curry"}, {"URL": "http://www.just-eat.co.uk/restaurants-4seasonspizzaandgrill-dy3/menu", "address": "12-14 High Street", "address line 2": "Dudley", "name": "4 Seasons Pizza & Grill", "outcode": "DY3", "postcode": "1RW", "rating": 5, "type_of_food": "Pizza"}, {"URL": "http://www.just-eat.co.uk/restaurants-4550milesfromdelhi-ng1/menu", "address": "41 Mount Street", "address line 2": "Nottinghamshire", "name": "4550 Miles From Delhi - Collection Only", "outcode": "NG1", "postcode": "6HE", "rating": "Not yet rated", "type_of_food": "Curry"}, {"URL": "http://www.just-eat.co.uk/restaurants-5in1-pr3/menu", "address": "23 Berry Lane", "address line 2": "Longridge", "name": "5 In 1 Takeaway", "outcode": "PR3", "postcode": "3JA", "rating": 5, "type_of_food": "Curry"}, {"URL": "http://www.just-eat.co.uk/restaurants-5n1-dd8/menu", "address": "126 Castle Street", "address line 2": "Forfar", "name": "5 'N' 1", "outcode": "DD8", "postcode": "2HS", "rating": 4.5, "type_of_food": "Curry"}, {"URL": "http://www.just-eat.co.uk/restaurants-5-star-chinese-archway/menu", "address": "362 Hornsey Road", "address line 2": "London", "name": "5 Star Chinese", "outcode": "N19", "postcode": "4HD", "rating": 5, "type_of_food": "Chinese"}, {"URL": "http://www.just-eat.co.uk/restaurants-5-star-chinese-archway/menu", "address": "362 Hornsey Road", "address line 2": "London", "name": "5 Star Chinese", "outcode": "N19", "postcode": "4HD", "rating": 5, "type_of_food": "Chinese"}, {"URL": "http://www.just-eat.co.uk/restaurants-5-star-falafel--gh-butchers-kingsbury/menu", "address": "423 Kingsbury Road", "address line 2": "London", "name": "5 Star Falafel @ GH Butchers", "outcode": "NW9", "postcode": "9DT", "rating": "Not yet rated", "type_of_food": "Lebanese"}, {"URL": "http://www.just-eat.co.uk/restaurants-5-star-falafel--gh-butchers-kingsbury/menu", "address": "423 Kingsbury Road", "address line 2": "London", "name": "5 Star Falafel @ GH Butchers", "outcode": "NW9", "postcode": "9DT", "rating": "Not yet rated", "type_of_food": "Lebanese"}, {"URL": "http://www.just-eat.co.uk/restaurants-5-star-fish-bar/menu", "address": "103 Stafford Street", "address line 2": "Walsall", "name": "5 Star Fish Bar", "outcode": "WS2", "postcode": "8DX", "rating": 5, "type_of_food": "American"}, {"URL": "http://www.just-eat.co.uk/restaurants-5starpizza-ha9/menu", "address": "379 High Road", "address line 2": "Wembley", "name": "5 Star Pizza", "outcode": "HA9", "postcode": "6AA", "rating": 2.5, "type_of_food": "Pizza"}, {"URL": "http://www.just-eat.co.uk/restaurants-5starpizza-ha9/menu", "address": "379 High Road", "address line 2": "Wembley", "name": "5 Star Pizza", "outcode": "HA9", "postcode": "6AA", "rating": 2.5, "type_of_food": "Pizza"}, {"URL": "http://www.just-eat.co.uk/restaurants-5starpizza-ha9/menu", "address": "379 High Road", "address line 2": "Wembley", "name": "5 Star Pizza", "outcode": "HA9", "postcode": "6AA", "rating": 2.5, "type_of_food": "Pizza"}, {"URL": "http://www.just-eat.co.uk/restaurants-5starpizza-ha9/menu", "address": "379 High Road", "address line 2": "Wembley", "name": "5 Star Pizza", "outcode": "HA9", "postcode": "6AA", "rating": 2.5, "type_of_food": "Pizza"}, {"URL": "http://www.just-eat.co.uk/restaurants-5starpizza-b70/menu", "address": "104 Hiltop Road", "address line 2": "West Bromich", "name": "5 Star Pizza", "outcode": "B70", "postcode": "0SH", "rating": 5, "type_of_food": "Pizza"}, {"URL": "http://www.just-eat.co.uk/restaurants-5starpizza-b70/menu", "address": "104 Hiltop Road", "address line 2": "West Bromich", "name": "5 Star Pizza", "outcode": "B70", "postcode": "0SH", "rating": 5, "type_of_food": "Pizza"}, {"URL": "http://www.just-eat.co.uk/restaurants-5starpizza-b70/menu", "address": "104 Hiltop Road", "address line 2": "West Bromich", "name": "5 Star Pizza", "outcode": "B70", "postcode": "0SH", "rating": 5, "type_of_food": "Pizza"}, {"URL": "http://www.just-eat.co.uk/restaurants-555hotcurry-ct12/menu", "address": "17-19 Northwood Road", "address line 2": "Kent", "name": "555 Hot Curry", "outcode": "CT12", "postcode": "6RR", "rating": 4, "type_of_food": "Curry"}, {"URL": "http://www.just-eat.co.uk/restaurants-555pizza-ct1/menu", "address": "72 Castle Street", "address line 2": "Canterbury", "name": "555 Pizza", "outcode": "CT1", "postcode": "2QD", "rating": 4.5, "type_of_food": "Pizza"}, {"URL": "http://www.just-eat.co.uk/restaurants-555pizzaandkebab-ct12/menu", "address": "15 Northwood Road", "address line 2": "Kent", "name": "555 Pizza & Kebab", "outcode": "CT12", "postcode": "6RR", "rating": 4.5, "type_of_food": "Pizza"}, {"URL": "http://www.just-eat.co.uk/restaurants-57-orient-takeawayPR8/menu", "address": "81 Upper Aughton Road", "address line 2": "Southport", "name": "57 Orient Takeaway", "outcode": "PR8", "postcode": "5ND", "rating": 4.5, "type_of_food": "Chinese"}, {"URL": "http://www.just-eat.co.uk/restaurants-62worksop-s80/menu", "address": "62 Newcastle Avenue", "address line 2": "Worksop", "name": "62 Worksop Fish Bar", "outcode": "S80", "postcode": "1LA", "rating": 5, "type_of_food": "Fish & Chips"}, {"URL": "http://www.just-eat.co.uk/restaurants-64pizzeria-ls4/menu", "address": "64 Burley Road", "address line 2": "Leeds", "name": "64 Pizzeria", "outcode": "LS3", "postcode": "1JX", "rating": 5.5, "type_of_food": "Pizza"}, {"URL": "http://www.just-eat.co.uk/restaurants-7andone-bt53/menu", "address": "3 Charles Street", "address line 2": "County Antrim", "name": "7 & One", "outcode": "BT53", "postcode": "6DX", "rating": 5.5, "type_of_food": "Chinese"}, {"URL": "http://www.just-eat.co.uk/restaurants-7oaksgrilltn13/menu", "address": "127 St Johns Hill", "address line 2": "Sevenoaks", "name": "7 Oaks Grill", "outcode": "TN13", "postcode": "3PE", "rating": 4.5, "type_of_food": "English"}, {"URL": "http://www.just-eat.co.uk/restaurants-7spices-s3/menu", "address": "Mayfair Court", "address line 2": "Sheffield", "name": "7 Spices", "outcode": "S3", "postcode": "8PP", "rating": 5, "type_of_food": "Curry"}, {"URL": "http://www.just-eat.co.uk/restaurants-7Spices-LS6/menu", "address": "203-205 Woodhouse Street", "address line 2": "Leeds", "name": "7 Spices", "outcode": "LS6", "postcode": "2NY", "rating": 5, "type_of_food": "Curry"}, {"URL": "http://www.just-eat.co.uk/restaurants-7spices-g32/menu", "address": "975 Carntyne Road", "address line 2": "Glasgow", "name": "7 Spices Takeaway", "outcode": "G32", "postcode": "6LY", "rating": 4.5, "type_of_food": "Curry"}, {"URL": "http://www.just-eat.co.uk/restaurants-7star-ne6/menu", "address": "824 Shields Road", "address line 2": "Newcastle", "name": "7 STAR Pizza", "outcode": "NE6", "postcode": "4QN", "rating": 5.5, "type_of_food": "Pizza"}, {"URL": "http://www.just-eat.co.uk/restaurants-7star-ne6/menu", "address": "824 Shields Road", "address line 2": "Newcastle", "name": "7 STAR Pizza", "outcode": "NE6", "postcode": "4QN", "rating": 5.5, "type_of_food": "Pizza"}, {"URL": "http://www.just-eat.co.uk/restaurants-7star-ne6/menu", "address": "824 Shields Road", "address line 2": "Newcastle", "name": "7 STAR Pizza", "outcode": "NE6", "postcode": "4QN", "rating": 5.5, "type_of_food": "Pizza"}, {"URL": "http://www.just-eat.co.uk/restaurants-7starspices-g52/menu", "address": "828 Mosspark Drive", "address line 2": "Lanarkshire", "name": "7 Star Spices", "outcode": "G52", "postcode": "3DA", "rating": 5.5, "type_of_food": "Pizza"}, {"URL": "http://www.just-eat.co.uk/restaurants-700degrees-gu51/menu", "address": "192-196 Fleet Road", "address line 2": "Hampshire", "name": "700 Degrees", "outcode": "GU51", "postcode": "4BY", "rating": 4.5, "type_of_food": "Chicken"}, {"URL": "http://www.just-eat.co.uk/restaurants-88-chinese-millbrook/menu", "address": "44 London Road", "address line 2": "Southampton", "name": "88 Chinese", "outcode": "SO15", "postcode": "2AH", "rating": 5, "type_of_food": "Chinese"}, {"URL": "http://www.just-eat.co.uk/restaurants-88noodlebar-hd1/menu", "address": "15 Cross Church Street", "address line 2": "Huddersfield", "name": "88 Noodle Bar", "outcode": "HD1", "postcode": "2PY", "rating": 4, "type_of_food": "Chinese"}, {"URL": "http://www.just-eat.co.uk/restaurants-888chinese-so23/menu", "address": "77 North Walls", "address line 2": "Winchester", "name": "888 Chinese Takeaway", "outcode": "SO23", "postcode": "8DA", "rating": 5, "type_of_food": "Chinese"}, {"URL": "http://www.just-eat.co.uk/restaurants-888tripleeight-bh9/menu", "address": "888 Wimborne Road", "address line 2": "Bournemouth", "name": "888 Triple Eight", "outcode": "BH9", "postcode": "2DR", "rating": 5, "type_of_food": "Chinese"}, {"URL": "http://www.just-eat.co.uk/restaurants-9cfc/menu", "address": "7 Shopping Precinct", "address line 2": "Featherstone", "name": "9 Inch CFC", "outcode": "WF7", "postcode": "5BX", "rating": 5, "type_of_food": "Pizza"}, {"URL": "http://www.just-eat.co.uk/restaurants-9thavenuepizzeria-bt78/menu", "address": "9 Dromore Road", "address line 2": "Omagh", "name": "9th Avenue Pizzeria", "outcode": "BT78", "postcode": "1QZ", "rating": 5.5, "type_of_food": "Pizza"}, {"URL": "http://www.just-eat.co.uk/restaurants-9thkitchen-b26/menu", "address": "397 Sheldon Heath Road", "address line 2": "Sheldon", "name": "9th Kitchen", "outcode": "B26", "postcode": "2UB", "rating": 5, "type_of_food": "Chinese"}, {"URL": "http://www.just-eat.co.uk/restaurants-A-G-Kitchen-M40/menu", "address": "267 Nuthurst Road", "address line 2": "Manchester", "name": "A & G Kitchen", "outcode": "M40", "postcode": "3PU", "rating": 5, "type_of_food": "Chinese"}, {"URL": "http://www.just-eat.co.uk/restaurants-a-and-t-mundi-house-iffley/menu", "address": "64 Cowley Road", "address line 2": "", "name": "A & T Mundi House", "outcode": "OX4", "postcode": "1JB", "rating": 4.5, "type_of_food": "Arabic"}, {"URL": "http://www.just-eat.co.uk/restaurants-a-cake-a-shake-stockport/menu", "address": "8B - 12B Houldsworth Street", "address line 2": "Stockport", "name": "A Cake A Shake", "outcode": "SK5", "postcode": "6DA", "rating": 4.5, "type_of_food": "Desserts"}, {"URL": "http://www.just-eat.co.uk/restaurants-a-cake-a-shake-stockport/menu", "address": "8B - 12B Houldsworth Street", "address line 2": "Stockport", "name": "A Cake A Shake", "outcode": "SK5", "postcode": "6DA", "rating": 4.5, "type_of_food": "Desserts"}]